ISS (ZARYA)             
1 25544U 98067A   26177.47752734  .00007960  00000+0  15019-3 0  9992
2 25544  51.6324 254.1054 0004309 234.2414 125.8174 15.49438531573196
POISK                   
1 36086U 09060A   26177.47752734  .00007960  00000+0  15019-3 0  9990
2 36086  51.6324 254.1054 0004309 234.2414 125.8174 15.49438531590086
CSS (TIANHE)            
1 48274U 21035A   26177.63772013  .00020548  00000+0  23874-3 0  9993
2 48274  41.4690 264.4733 0007980 157.4644 202.6547 15.61217048294641
ISS (NAUKA)             
1 49044U 21066A   26177.47752734  .00007960  00000+0  15019-3 0  9998
2 49044  51.6324 254.1054 0004309 234.2414 125.8174 15.49438531607814
FREGAT DEB              
1 49271U 11037PF  26174.72777939  .00007325  00000+0  12644-1 0  9990
2 49271  51.6248 342.2478 0899580 296.6074  54.5366 12.42164012225869
CSS (WENTIAN)           
1 53239U 22085A   26177.57375109  .00020720  00000+0  24073-3 0  9998
2 53239  41.4690 264.8628 0007978 156.9177 203.2022 15.61214347288239
CSS (MENGTIAN)          
1 54216U 22143A   26177.63772013  .00020548  00000+0  23874-3 0  9997
2 54216  41.4690 264.4733 0007980 157.4644 202.6547 15.61217048295432
HRC MONOBLOCK CAMERA    
1 66052U 98067XR  26177.40375424  .00079447  00000+0  51451-3 0  9990
2 66052  51.6215 231.7851 0002611 346.7557  13.3373 15.75334159 39459
SZ-21 MODULE            
1 66515U 25246C   26177.58965000  .00043902  00000+0  26051-3 0  9992
2 66515  41.4719 248.7328 0005018  65.4550 294.6818 15.77194503 35226
SOYUZ-MS 28             
1 66664U 25275A   26177.47752734  .00007960  00000+0  15019-3 0  9991
2 66664  51.6324 254.1054 0004309 234.2414 125.8174 15.49438531643271
DUPLEX                  
1 66906U 98067XS  26177.57947714  .00037462  00000+0  40436-3 0  9995
2 66906  51.6262 242.0191 0002756 260.2726  99.7957 15.63263694 32124
ISS OBJECT XY           
1 66912U 98067XY  26177.50612582  .01350350  12904-2  11603-2 0  9994
2 66912  51.6111 224.0219 0010321 354.2805   5.8090 16.12879178 32349
KNACKSAT-2              
1 67683U 98067XZ  26177.44486485  .00049509  00000+0  58452-3 0  9999
2 67683  51.6280 247.8833 0008675 257.0459 102.9566 15.60782463 21720
CORAL                   
1 67684U 98067YA  26177.44091630  .00238868  00000+0  12083-2 0  9991
2 67684  51.6191 240.2907 0009319 309.7891  50.2289 15.80276612 21826
GXIBA-1                 
1 67685U 98067YB  26177.56505284  .00050655  00000+0  55764-3 0  9990
2 67685  51.6264 246.4303 0009474 255.2987 104.6958 15.62574528 21755
UITMSAT-2               
1 67686U 98067YC  26177.55616324  .00072376  00000+0  68697-3 0  9991
2 67686  51.6250 244.8671 0004793 259.2702 100.7754 15.66216971 21771
LEOPARD                 
1 67687U 98067YD  26177.59474044  .00047828  00000+0  54173-3 0  9995
2 67687  51.6285 246.6450 0005360 240.1276 119.9185 15.61901519 21674
