[{"OBJECT_NAME":"ISS (ZARYA)","OBJECT_ID":"1998-067A","EPOCH":"2026-06-26T11:27:38.362176","MEAN_MOTION":15.49438531,"ECCENTRICITY":0.0004309,"INCLINATION":51.6324,"RA_OF_ASC_NODE":254.1054,"ARG_OF_PERICENTER":234.2414,"MEAN_ANOMALY":125.8174,"EPHEMERIS_TYPE":0,"CLASSIFICATION_TYPE":"U","NORAD_CAT_ID":25544,"ELEMENT_SET_NO":999,"REV_AT_EPOCH":57319,"BSTAR":0.00015019,"MEAN_MOTION_DOT":7.96e-5,"MEAN_MOTION_DDOT":0},{"OBJECT_NAME":"POISK","OBJECT_ID":"2009-060A","EPOCH":"2026-06-26T11:27:38.362176","MEAN_MOTION":15.49438531,"ECCENTRICITY":0.0004309,"INCLINATION":51.6324,"RA_OF_ASC_NODE":254.1054,"ARG_OF_PERICENTER":234.2414,"MEAN_ANOMALY":125.8174,"EPHEMERIS_TYPE":0,"CLASSIFICATION_TYPE":"U","NORAD_CAT_ID":36086,"ELEMENT_SET_NO":999,"REV_AT_EPOCH":59008,"BSTAR":0.00015019,"MEAN_MOTION_DOT":7.96e-5,"MEAN_MOTION_DDOT":0},{"OBJECT_NAME":"CSS (TIANHE)","OBJECT_ID":"2021-035A","EPOCH":"2026-06-26T15:18:19.019232","MEAN_MOTION":15.61217048,"ECCENTRICITY":0.000798,"INCLINATION":41.469,"RA_OF_ASC_NODE":264.4733,"ARG_OF_PERICENTER":157.4644,"MEAN_ANOMALY":202.6547,"EPHEMERIS_TYPE":0,"CLASSIFICATION_TYPE":"U","NORAD_CAT_ID":48274,"ELEMENT_SET_NO":999,"REV_AT_EPOCH":29464,"BSTAR":0.00023874,"MEAN_MOTION_DOT":0.00020548,"MEAN_MOTION_DDOT":0},{"OBJECT_NAME":"ISS (NAUKA)","OBJECT_ID":"2021-066A","EPOCH":"2026-06-26T11:27:38.362176","MEAN_MOTION":15.49438531,"ECCENTRICITY":0.0004309,"INCLINATION":51.6324,"RA_OF_ASC_NODE":254.1054,"ARG_OF_PERICENTER":234.2414,"MEAN_ANOMALY":125.8174,"EPHEMERIS_TYPE":0,"CLASSIFICATION_TYPE":"U","NORAD_CAT_ID":49044,"ELEMENT_SET_NO":999,"REV_AT_EPOCH":60781,"BSTAR":0.00015019,"MEAN_MOTION_DOT":7.96e-5,"MEAN_MOTION_DDOT":0},{"OBJECT_NAME":"FREGAT DEB","OBJECT_ID":"2011-037PF","EPOCH":"2026-06-23T17:28:00.139296","MEAN_MOTION":12.42164012,"ECCENTRICITY":0.08995808,"INCLINATION":51.6248,"RA_OF_ASC_NODE":342.2478,"ARG_OF_PERICENTER":296.6074,"MEAN_ANOMALY":54.5366,"EPHEMERIS_TYPE":0,"CLASSIFICATION_TYPE":"U","NORAD_CAT_ID":49271,"ELEMENT_SET_NO":999,"REV_AT_EPOCH":22586,"BSTAR":0.01264407,"MEAN_MOTION_DOT":7.325e-5,"MEAN_MOTION_DDOT":0},{"OBJECT_NAME":"CSS (WENTIAN)","OBJECT_ID":"2022-085A","EPOCH":"2026-06-26T13:46:12.094176","MEAN_MOTION":15.61214347,"ECCENTRICITY":0.00079788,"INCLINATION":41.469,"RA_OF_ASC_NODE":264.8628,"ARG_OF_PERICENTER":156.9177,"MEAN_ANOMALY":203.2022,"EPHEMERIS_TYPE":0,"CLASSIFICATION_TYPE":"U","NORAD_CAT_ID":53239,"ELEMENT_SET_NO":999,"REV_AT_EPOCH":28823,"BSTAR":0.00024073428,"MEAN_MOTION_DOT":0.0002072,"MEAN_MOTION_DDOT":0},{"OBJECT_NAME":"CSS (MENGTIAN)","OBJECT_ID":"2022-143A","EPOCH":"2026-06-26T15:18:19.019232","MEAN_MOTION":15.61217048,"ECCENTRICITY":0.000798,"INCLINATION":41.469,"RA_OF_ASC_NODE":264.4733,"ARG_OF_PERICENTER":157.4644,"MEAN_ANOMALY":202.6547,"EPHEMERIS_TYPE":0,"CLASSIFICATION_TYPE":"U","NORAD_CAT_ID":54216,"ELEMENT_SET_NO":999,"REV_AT_EPOCH":29543,"BSTAR":0.00023874,"MEAN_MOTION_DOT":0.00020548,"MEAN_MOTION_DDOT":0},{"OBJECT_NAME":"HRC MONOBLOCK CAMERA","OBJECT_ID":"1998-067XR","EPOCH":"2026-06-26T09:41:24.366336","MEAN_MOTION":15.75334159,"ECCENTRICITY":0.0002611,"INCLINATION":51.6215,"RA_OF_ASC_NODE":231.7851,"ARG_OF_PERICENTER":346.7557,"MEAN_ANOMALY":13.3373,"EPHEMERIS_TYPE":0,"CLASSIFICATION_TYPE":"U","NORAD_CAT_ID":66052,"ELEMENT_SET_NO":999,"REV_AT_EPOCH":3945,"BSTAR":0.00051451,"MEAN_MOTION_DOT":0.00079447,"MEAN_MOTION_DDOT":0},{"OBJECT_NAME":"SZ-21 MODULE","OBJECT_ID":"2025-246C","EPOCH":"2026-06-26T14:09:05.760000","MEAN_MOTION":15.77194503,"ECCENTRICITY":0.0005018,"INCLINATION":41.4719,"RA_OF_ASC_NODE":248.7328,"ARG_OF_PERICENTER":65.455,"MEAN_ANOMALY":294.6818,"EPHEMERIS_TYPE":0,"CLASSIFICATION_TYPE":"U","NORAD_CAT_ID":66515,"ELEMENT_SET_NO":999,"REV_AT_EPOCH":3522,"BSTAR":0.00026051,"MEAN_MOTION_DOT":0.00043902,"MEAN_MOTION_DDOT":0},{"OBJECT_NAME":"SOYUZ-MS 28","OBJECT_ID":"2025-275A","EPOCH":"2026-06-26T11:27:38.362176","MEAN_MOTION":15.49438531,"ECCENTRICITY":0.0004309,"INCLINATION":51.6324,"RA_OF_ASC_NODE":254.1054,"ARG_OF_PERICENTER":234.2414,"MEAN_ANOMALY":125.8174,"EPHEMERIS_TYPE":0,"CLASSIFICATION_TYPE":"U","NORAD_CAT_ID":66664,"ELEMENT_SET_NO":999,"REV_AT_EPOCH":64327,"BSTAR":0.00015019,"MEAN_MOTION_DOT":7.96e-5,"MEAN_MOTION_DDOT":0},{"OBJECT_NAME":"DUPLEX","OBJECT_ID":"1998-067XS","EPOCH":"2026-06-26T13:54:26.824896","MEAN_MOTION":15.63263694,"ECCENTRICITY":0.0002756,"INCLINATION":51.6262,"RA_OF_ASC_NODE":242.0191,"ARG_OF_PERICENTER":260.2726,"MEAN_ANOMALY":99.7957,"EPHEMERIS_TYPE":0,"CLASSIFICATION_TYPE":"U","NORAD_CAT_ID":66906,"ELEMENT_SET_NO":999,"REV_AT_EPOCH":3212,"BSTAR":0.00040436,"MEAN_MOTION_DOT":0.00037462,"MEAN_MOTION_DDOT":0},{"OBJECT_NAME":"ISS OBJECT XY","OBJECT_ID":"1998-067XY","EPOCH":"2026-06-26T12:08:49.270848","MEAN_MOTION":16.12879178,"ECCENTRICITY":0.0010321,"INCLINATION":51.6111,"RA_OF_ASC_NODE":224.0219,"ARG_OF_PERICENTER":354.2805,"MEAN_ANOMALY":5.809,"EPHEMERIS_TYPE":0,"CLASSIFICATION_TYPE":"U","NORAD_CAT_ID":66912,"ELEMENT_SET_NO":999,"REV_AT_EPOCH":3234,"BSTAR":0.0011603,"MEAN_MOTION_DOT":0.0135035,"MEAN_MOTION_DDOT":0.0012904},{"OBJECT_NAME":"KNACKSAT-2","OBJECT_ID":"1998-067XZ","EPOCH":"2026-06-26T10:40:36.323040","MEAN_MOTION":15.60782463,"ECCENTRICITY":0.0008675,"INCLINATION":51.628,"RA_OF_ASC_NODE":247.8833,"ARG_OF_PERICENTER":257.0459,"MEAN_ANOMALY":102.9566,"EPHEMERIS_TYPE":0,"CLASSIFICATION_TYPE":"U","NORAD_CAT_ID":67683,"ELEMENT_SET_NO":999,"REV_AT_EPOCH":2172,"BSTAR":0.00058452,"MEAN_MOTION_DOT":0.00049509,"MEAN_MOTION_DDOT":0},{"OBJECT_NAME":"CORAL","OBJECT_ID":"1998-067YA","EPOCH":"2026-06-26T10:34:55.168320","MEAN_MOTION":15.80276612,"ECCENTRICITY":0.0009319,"INCLINATION":51.6191,"RA_OF_ASC_NODE":240.2907,"ARG_OF_PERICENTER":309.7891,"MEAN_ANOMALY":50.2289,"EPHEMERIS_TYPE":0,"CLASSIFICATION_TYPE":"U","NORAD_CAT_ID":67684,"ELEMENT_SET_NO":999,"REV_AT_EPOCH":2182,"BSTAR":0.0012083,"MEAN_MOTION_DOT":0.00238868,"MEAN_MOTION_DDOT":0},{"OBJECT_NAME":"GXIBA-1","OBJECT_ID":"1998-067YB","EPOCH":"2026-06-26T13:33:40.565376","MEAN_MOTION":15.62574528,"ECCENTRICITY":0.0009474,"INCLINATION":51.6264,"RA_OF_ASC_NODE":246.4303,"ARG_OF_PERICENTER":255.2987,"MEAN_ANOMALY":104.6958,"EPHEMERIS_TYPE":0,"CLASSIFICATION_TYPE":"U","NORAD_CAT_ID":67685,"ELEMENT_SET_NO":999,"REV_AT_EPOCH":2175,"BSTAR":0.00055764,"MEAN_MOTION_DOT":0.00050655,"MEAN_MOTION_DDOT":0},{"OBJECT_NAME":"UITMSAT-2","OBJECT_ID":"1998-067YC","EPOCH":"2026-06-26T13:20:52.503936","MEAN_MOTION":15.66216971,"ECCENTRICITY":0.0004793,"INCLINATION":51.625,"RA_OF_ASC_NODE":244.8671,"ARG_OF_PERICENTER":259.2702,"MEAN_ANOMALY":100.7754,"EPHEMERIS_TYPE":0,"CLASSIFICATION_TYPE":"U","NORAD_CAT_ID":67686,"ELEMENT_SET_NO":999,"REV_AT_EPOCH":2177,"BSTAR":0.00068697,"MEAN_MOTION_DOT":0.00072376,"MEAN_MOTION_DDOT":0},{"OBJECT_NAME":"LEOPARD","OBJECT_ID":"1998-067YD","EPOCH":"2026-06-26T14:16:25.574016","MEAN_MOTION":15.61901519,"ECCENTRICITY":0.000536,"INCLINATION":51.6285,"RA_OF_ASC_NODE":246.645,"ARG_OF_PERICENTER":240.1276,"MEAN_ANOMALY":119.9185,"EPHEMERIS_TYPE":0,"CLASSIFICATION_TYPE":"U","NORAD_CAT_ID":67687,"ELEMENT_SET_NO":999,"REV_AT_EPOCH":2167,"BSTAR":0.00054173,"MEAN_MOTION_DOT":0.00047828,"MEAN_MOTION_DDOT":0}]
